[{"OBJECT_NAME":"STARLINK-4398","OBJECT_ID":"2022-099B","EPOCH":"2026-03-09T20:40:09.712992","MEAN_MOTION":15.01260408,"ECCENTRICITY":0.00018332,"INCLINATION":97.602,"RA_OF_ASC_NODE":190.3842,"ARG_OF_PERICENTER":80.6969,"MEAN_ANOMALY":279.4462,"EPHEMERIS_TYPE":0,"CLASSIFICATION_TYPE":"U","NORAD_CAT_ID":53466,"ELEMENT_SET_NO":999,"REV_AT_EPOCH":19600,"BSTAR":2.7798956e-5,"MEAN_MOTION_DOT":2.99e-6,"MEAN_MOTION_DDOT":0},{"OBJECT_NAME":"CZ-2C R\/B","OBJECT_ID":"2017-058D","EPOCH":"2026-03-09T16:59:52.285056","MEAN_MOTION":14.86156535,"ECCENTRICITY":0.00586876,"INCLINATION":34.9248,"RA_OF_ASC_NODE":220.8094,"ARG_OF_PERICENTER":138.3412,"MEAN_ANOMALY":222.178,"EPHEMERIS_TYPE":0,"CLASSIFICATION_TYPE":"U","NORAD_CAT_ID":42948,"ELEMENT_SET_NO":999,"REV_AT_EPOCH":45742,"BSTAR":0.00024135998,"MEAN_MOTION_DOT":2.199e-5,"MEAN_MOTION_DDOT":0}]
